[{"OBJECT_NAME":"SL-8 R/B","OBJECT_ID":"1988-053B","EPOCH":"2026-03-14T12:47:15.468288","MEAN_MOTION":14.38919116,"ECCENTRICITY":0.00214981,"INCLINATION":74.0454,"RA_OF_ASC_NODE":103.5385,"ARG_OF_PERICENTER":282.1836,"MEAN_ANOMALY":188.5763,"EPHEMERIS_TYPE":0,"CLASSIFICATION_TYPE":"U","NORAD_CAT_ID":19257,"ELEMENT_SET_NO":999,"REV_AT_EPOCH":97729,"BSTAR":0.00010991072,"MEAN_MOTION_DOT":3.13e-6,"MEAN_MOTION_DDOT":0},{"OBJECT_NAME":"COSMOS 1975","OBJECT_ID":"1988-093A","EPOCH":"2026-03-14T19:58:43.602240","MEAN_MOTION":15.28148892,"ECCENTRICITY":0.00126111,"INCLINATION":82.518,"RA_OF_ASC_NODE":112.5222,"ARG_OF_PERICENTER":146.202,"MEAN_ANOMALY":214.0026,"EPHEMERIS_TYPE":0,"CLASSIFICATION_TYPE":"U","NORAD_CAT_ID":19573,"ELEMENT_SET_NO":999,"REV_AT_EPOCH":2019,"BSTAR":0.00030155371,"MEAN_MOTION_DOT":8.324e-5,"MEAN_MOTION_DDOT":0},{"OBJECT_NAME":"SL-14 R/B","OBJECT_ID":"1988-093B","EPOCH":"2026-03-14T21:56:33.711648","MEAN_MOTION":14.85663862,"ECCENTRICITY":0.00213825,"INCLINATION":82.5314,"RA_OF_ASC_NODE":37.1391,"ARG_OF_PERICENTER":24.9912,"MEAN_ANOMALY":28.5771,"EPHEMERIS_TYPE":0,"CLASSIFICATION_TYPE":"U","NORAD_CAT_ID":19574,"ELEMENT_SET_NO":999,"REV_AT_EPOCH":179,"BSTAR":7.6315252e-5,"MEAN_MOTION_DOT":6.88e-6,"MEAN_MOTION_DDOT":0},{"OBJECT_NAME":"SL-16 R/B","OBJECT_ID":"1988-102B","EPOCH":"2026-03-14T22:04:48.177120","MEAN_MOTION":14.16155252,"ECCENTRICITY":0.0014282,"INCLINATION":70.9995,"RA_OF_ASC_NODE":140.4923,"ARG_OF_PERICENTER":353.2919,"MEAN_ANOMALY":6.8011,"EPHEMERIS_TYPE":0,"CLASSIFICATION_TYPE":"U","NORAD_CAT_ID":19650,"ELEMENT_SET_NO":999,"REV_AT_EPOCH":92763,"BSTAR":0.00010946819,"MEAN_MOTION_DOT":1.69e-6,"MEAN_MOTION_DDOT":0},{"OBJECT_NAME":"INTERCOSMOS 24","OBJECT_ID":"1989-080A","EPOCH":"2026-03-14T19:21:32.200416","MEAN_MOTION":12.59566345,"ECCENTRICITY":0.11866735,"INCLINATION":82.6019,"RA_OF_ASC_NODE":101.0713,"ARG_OF_PERICENTER":280.9315,"MEAN_ANOMALY":66.0745,"EPHEMERIS_TYPE":0,"CLASSIFICATION_TYPE":"U","NORAD_CAT_ID":20261,"ELEMENT_SET_NO":999,"REV_AT_EPOCH":66744,"BSTAR":0.00022785405,"MEAN_MOTION_DOT":7.65e-6,"MEAN_MOTION_DDOT":0},{"OBJECT_NAME":"SL-14 R/B","OBJECT_ID":"1989-080C","EPOCH":"2026-03-14T16:15:01.166976","MEAN_MOTION":12.50500366,"ECCENTRICITY":0.12306988,"INCLINATION":82.5972,"RA_OF_ASC_NODE":169.9858,"ARG_OF_PERICENTER":173.3542,"MEAN_ANOMALY":188.5732,"EPHEMERIS_TYPE":0,"CLASSIFICATION_TYPE":"U","NORAD_CAT_ID":20262,"ELEMENT_SET_NO":999,"REV_AT_EPOCH":66077,"BSTAR":0.00018435565,"MEAN_MOTION_DOT":6.31e-6,"MEAN_MOTION_DDOT":0},{"OBJECT_NAME":"DELTA 1 R/B","OBJECT_ID":"1989-089B","EPOCH":"2026-03-14T20:42:43.397856","MEAN_MOTION":14.50667706,"ECCENTRICITY":0.00706491,"INCLINATION":97.0702,"RA_OF_ASC_NODE":280.4788,"ARG_OF_PERICENTER":105.9304,"MEAN_ANOMALY":254.9694,"EPHEMERIS_TYPE":0,"CLASSIFICATION_TYPE":"U","NORAD_CAT_ID":20323,"ELEMENT_SET_NO":999,"REV_AT_EPOCH":89648,"BSTAR":0.00010600517,"MEAN_MOTION_DOT":3.95e-6,"MEAN_MOTION_DDOT":0},{"OBJECT_NAME":"ARIANE 40 R/B","OBJECT_ID":"1990-005H","EPOCH":"2026-03-14T21:16:22.828512","MEAN_MOTION":14.39874319,"ECCENTRICITY":0.00101691,"INCLINATION":98.3072,"RA_OF_ASC_NODE":134.3927,"ARG_OF_PERICENTER":182.5889,"MEAN_ANOMALY":177.5249,"EPHEMERIS_TYPE":0,"CLASSIFICATION_TYPE":"U","NORAD_CAT_ID":20443,"ELEMENT_SET_NO":999,"REV_AT_EPOCH":89355,"BSTAR":0.00010962555,"MEAN_MOTION_DOT":3.02e-6,"MEAN_MOTION_DDOT":0},{"OBJECT_NAME":"DELTA 2 R/B(1)","OBJECT_ID":"1990-008B","EPOCH":"2026-03-14T21:23:28.613760","MEAN_MOTION":15.56709705,"ECCENTRICITY":0.00835566,"INCLINATION":35.6033,"RA_OF_ASC_NODE":140.6976,"ARG_OF_PERICENTER":306.7395,"MEAN_ANOMALY":52.5691,"EPHEMERIS_TYPE":0,"CLASSIFICATION_TYPE":"U","NORAD_CAT_ID":20453,"ELEMENT_SET_NO":999,"REV_AT_EPOCH":92694,"BSTAR":0.00079741782,"MEAN_MOTION_DOT":0.00069746,"MEAN_MOTION_DDOT":0},{"OBJECT_NAME":"COSMOS 2058","OBJECT_ID":"1990-010A","EPOCH":"2026-03-14T22:40:28.567776","MEAN_MOTION":15.11373982,"ECCENTRICITY":0.00086139,"INCLINATION":82.4665,"RA_OF_ASC_NODE":42.2491,"ARG_OF_PERICENTER":326.9729,"MEAN_ANOMALY":33.0962,"EPHEMERIS_TYPE":0,"CLASSIFICATION_TYPE":"U","NORAD_CAT_ID":20465,"ELEMENT_SET_NO":999,"REV_AT_EPOCH":94303,"BSTAR":0.00030511039,"MEAN_MOTION_DOT":5.179e-5,"MEAN_MOTION_DDOT":0},{"OBJECT_NAME":"SL-14 R/B","OBJECT_ID":"1990-010B","EPOCH":"2026-03-14T21:07:35.876640","MEAN_MOTION":14.83573999,"ECCENTRICITY":0.00183536,"INCLINATION":82.4987,"RA_OF_ASC_NODE":262.5114,"ARG_OF_PERICENTER":283.9328,"MEAN_ANOMALY":75.9846,"EPHEMERIS_TYPE":0,"CLASSIFICATION_TYPE":"U","NORAD_CAT_ID":20466,"ELEMENT_SET_NO":999,"REV_AT_EPOCH":92925,"BSTAR":5.9190068e-5,"MEAN_MOTION_DOT":5.12e-6,"MEAN_MOTION_DDOT":0},{"OBJECT_NAME":"SL-14 R/B","OBJECT_ID":"1990-018B","EPOCH":"2026-03-14T21:40:28.443072","MEAN_MOTION":14.82151275,"ECCENTRICITY":0.00175888,"INCLINATION":82.5212,"RA_OF_ASC_NODE":218.2165,"ARG_OF_PERICENTER":76.2819,"MEAN_ANOMALY":284.0351,"EPHEMERIS_TYPE":0,"CLASSIFICATION_TYPE":"U","NORAD_CAT_ID":20511,"ELEMENT_SET_NO":999,"REV_AT_EPOCH":92335,"BSTAR":6.9420155e-5,"MEAN_MOTION_DOT":5.78e-6,"MEAN_MOTION_DDOT":0},{"OBJECT_NAME":"HST","OBJECT_ID":"1990-037B","EPOCH":"2026-03-14T21:38:18.697920","MEAN_MOTION":15.29574848,"ECCENTRICITY":0.00017639,"INCLINATION":28.4725,"RA_OF_ASC_NODE":4.4435,"ARG_OF_PERICENTER":178.3433,"MEAN_ANOMALY":181.7169,"EPHEMERIS_TYPE":0,"CLASSIFICATION_TYPE":"U","NORAD_CAT_ID":20580,"ELEMENT_SET_NO":999,"REV_AT_EPOCH":77411,"BSTAR":0.00031210791,"MEAN_MOTION_DOT":9.443e-5,"MEAN_MOTION_DDOT":0},{"OBJECT_NAME":"SL-16 R/B","OBJECT_ID":"1990-046B","EPOCH":"2026-03-14T22:16:52.764672","MEAN_MOTION":14.15011269,"ECCENTRICITY":0.00161798,"INCLINATION":70.9976,"RA_OF_ASC_NODE":286.9119,"ARG_OF_PERICENTER":292.6133,"MEAN_ANOMALY":67.3278,"EPHEMERIS_TYPE":0,"CLASSIFICATION_TYPE":"U","NORAD_CAT_ID":20625,"ELEMENT_SET_NO":999,"REV_AT_EPOCH":84913,"BSTAR":4.049066e-6,"MEAN_MOTION_DOT":-4.0e-7,"MEAN_MOTION_DDOT":0},{"OBJECT_NAME":"COSMOS 2084","OBJECT_ID":"1990-055A","EPOCH":"2026-03-14T21:39:12.503520","MEAN_MOTION":15.05684534,"ECCENTRICITY":0.00162666,"INCLINATION":62.7914,"RA_OF_ASC_NODE":317.8004,"ARG_OF_PERICENTER":191.3555,"MEAN_ANOMALY":168.7181,"EPHEMERIS_TYPE":0,"CLASSIFICATION_TYPE":"U","NORAD_CAT_ID":20663,"ELEMENT_SET_NO":999,"REV_AT_EPOCH":93710,"BSTAR":0.00020497512,"MEAN_MOTION_DOT":2.782e-5,"MEAN_MOTION_DDOT":0},{"OBJECT_NAME":"SL-6 R/B(2)","OBJECT_ID":"1990-055D","EPOCH":"2026-03-14T19:48:43.474752","MEAN_MOTION":15.0362288,"ECCENTRICITY":0.00256271,"INCLINATION":62.7822,"RA_OF_ASC_NODE":236.3846,"ARG_OF_PERICENTER":348.2871,"MEAN_ANOMALY":11.7629,"EPHEMERIS_TYPE":0,"CLASSIFICATION_TYPE":"U","NORAD_CAT_ID":20666,"ELEMENT_SET_NO":999,"REV_AT_EPOCH":93896,"BSTAR":0.00019852537,"MEAN_MOTION_DOT":2.546e-5,"MEAN_MOTION_DDOT":0},{"OBJECT_NAME":"SL-8 R/B","OBJECT_ID":"1990-078B","EPOCH":"2026-03-14T21:12:36.558144","MEAN_MOTION":14.89249698,"ECCENTRICITY":0.03611847,"INCLINATION":82.8998,"RA_OF_ASC_NODE":246.6378,"ARG_OF_PERICENTER":356.5224,"MEAN_ANOMALY":3.3485,"EPHEMERIS_TYPE":0,"CLASSIFICATION_TYPE":"U","NORAD_CAT_ID":20775,"ELEMENT_SET_NO":999,"REV_AT_EPOCH":81007,"BSTAR":0.00062225589,"MEAN_MOTION_DOT":0.0002111,"MEAN_MOTION_DDOT":0}]
