SL-8 R/B                
1 19257U 88053B   26073.53281792  .00000313  00000+0  10991-3 0  9992
2 19257  74.0454 103.5385 0021498 282.1836 188.5763 14.38919116977294
COSMOS 1975             
1 19573U 88093A   26073.83244910  .00008324  00000+0  30155-3 0  9995
2 19573  82.5180 112.5222 0012611 146.2020 214.0026 15.28148892 20197
SL-14 R/B               
1 19574U 88093B   26073.91427907  .00000688  00000+0  76315-4 0  9998
2 19574  82.5314  37.1391 0021382  24.9912  28.5771 14.85663862  1794
SL-16 R/B               
1 19650U 88102B   26073.92000205  .00000169  00000+0  10947-3 0  9995
2 19650  70.9995 140.4923 0014282 353.2919   6.8011 14.16155252927639
INTERCOSMOS 24          
1 20261U 89080A   26073.80662269  .00000765  00000+0  22785-3 0  9997
2 20261  82.6019 101.0713 1186673 280.9315  66.0745 12.59566345667443
SL-14 R/B               
1 20262U 89080C   26073.67709684  .00000631  00000+0  18436-3 0  9996
2 20262  82.5972 169.9858 1230698 173.3542 188.5732 12.50500366660775
DELTA 1 R/B             
1 20323U 89089B   26073.86300229  .00000395  00000+0  10601-3 0  9999
2 20323  97.0702 280.4788 0070649 105.9304 254.9694 14.50667706896488
ARIANE 40 R/B           
1 20443U 90005H   26073.88637533  .00000302  00000+0  10963-3 0  9994
2 20443  98.3072 134.3927 0010169 182.5889 177.5249 14.39874319893555
DELTA 2 R/B(1)          
1 20453U 90008B   26073.89130340  .00069746  00000+0  79742-3 0  9990
2 20453  35.6033 140.6976 0083556 306.7395  52.5691 15.56709705926942
COSMOS 2058             
1 20465U 90010A   26073.94477509  .00005179  00000+0  30511-3 0  9994
2 20465  82.4665  42.2491 0008613 326.9729  33.0962 15.11373982943030
SL-14 R/B               
1 20466U 90010B   26073.88027635  .00000512  00000+0  59190-4 0  9990
2 20466  82.4987 262.5114 0018353 283.9328  75.9846 14.83573999929258
SL-14 R/B               
1 20511U 90018B   26073.90310698  .00000578  00000+0  69420-4 0  9995
2 20511  82.5212 218.2165 0017588  76.2819 284.0351 14.82151275923359
HST                     
1 20580U 90037B   26073.90160530  .00009443  00000+0  31211-3 0  9996
2 20580  28.4725   4.4435 0001763 178.3433 181.7169 15.29574848774117
SL-16 R/B               
1 20625U 90046B   26073.92838848 -.00000040  00000+0  40491-5 0  9999
2 20625  70.9976 286.9119 0016179 292.6133  67.3278 14.15011269849139
COSMOS 2084             
1 20663U 90055A   26073.90222805  .00002782  00000+0  20498-3 0  9996
2 20663  62.7914 317.8004 0016266 191.3555 168.7181 15.05684534937104
SL-6 R/B(2)             
1 20666U 90055D   26073.82550318  .00002546  00000+0  19853-3 0  9994
2 20666  62.7822 236.3846 0025627 348.2871  11.7629 15.03622880938962
SL-8 R/B                
1 20775U 90078B   26073.88375646  .00021110  00000+0  62226-3 0  9995
2 20775  82.8998 246.6378 0361184 356.5224   3.3485 14.89249698810072
